start=new Date('2021-10-09T00:00:00.000Z').valueOf();
sats=[{"TLE_LINE2":"2 45586  53.0553 117.2159 0002149 100.8074 259.3157 15.06407642 82392","SITE":"AFETR","PERIAPSIS":"545.702","RCS_SIZE":"LARGE","TLE_LINE1":"1 45586U 20025BH  21281.78490937  .00001628  00000-0  12816-3 0  9996","FILE":"3152020","MEAN_ELEMENT_THEORY":"SGP4","SEMIMAJOR_AXIS":"6925.325","MEAN_MOTION_DDOT":"0.0000000000000","REV_AT_EPOCH":"8239","LAUNCH_DATE":"2020-04-22","INCLINATION":"53.0553","GP_ID":"186594498","EPOCH":"2021-10-08T18:50:16.169568","DECAY_DATE":null,"OBJECT_TYPE":"PAYLOAD","COUNTRY_CODE":"US","RA_OF_ASC_NODE":"117.2159","MEAN_MOTION":"15.06407642","BSTAR":"0.00012816000000","ECCENTRICITY":"0.00021490","OBJECT_ID":"2020-025BH","CLASSIFICATION_TYPE":"U","MEAN_MOTION_DOT":"0.00001628","ARG_OF_PERICENTER":"100.8074","PERIOD":"95.592","OBJECT_NAME":"STARLINK-1347","APOAPSIS":"548.678","REF_FRAME":"TEME","NORAD_CAT_ID":"45586","EPHEMERIS_TYPE":"0","CENTER_NAME":"EARTH","MEAN_ANOMALY":"259.3157","ELEMENT_SET_NO":"999","TIME_SYSTEM":"UTC"},{"OBJECT_TYPE":"PAYLOAD","COUNTRY_CODE":"US","RA_OF_ASC_NODE":"117.0766","MEAN_MOTION":"15.06403487","MEAN_MOTION_DDOT":"0.0000000000000","REV_AT_EPOCH":"8241","LAUNCH_DATE":"2020-04-22","INCLINATION":"53.0551","GP_ID":"186593250","EPOCH":"2021-10-08T19:43:20.968608","DECAY_DATE":null,"MEAN_ELEMENT_THEORY":"SGP4","FILE":"3152020","SEMIMAJOR_AXIS":"6925.338","TLE_LINE2":"2 45587  53.0551 117.0766 0001896  87.7266 272.3940 15.06403487 82418","SITE":"AFETR","RCS_SIZE":"LARGE","PERIAPSIS":"545.890","TLE_LINE1":"1 45587U 20025BJ  21281.82177047  .00001031  00000-0  88117-4 0  9992","MEAN_ANOMALY":"272.3940","ELEMENT_SET_NO":"999","TIME_SYSTEM":"UTC","EPHEMERIS_TYPE":"0","CENTER_NAME":"EARTH","MEAN_MOTION_DOT":"0.00001031","PERIOD":"95.592","ARG_OF_PERICENTER":"87.7266","OBJECT_NAME":"STARLINK-1349","APOAPSIS":"548.516","NORAD_CAT_ID":"45587","REF_FRAME":"TEME","BSTAR":"0.00008811700000","ECCENTRICITY":"0.00018960","OBJECT_ID":"2020-025BJ","CLASSIFICATION_TYPE":"U"},{"OBJECT_ID":"2020-025BK","BSTAR":"-0.00003140500000","ECCENTRICITY":"0.00023870","CLASSIFICATION_TYPE":"U","ARG_OF_PERICENTER":"79.0626","PERIOD":"95.592","MEAN_MOTION_DOT":"-0.00000750","NORAD_CAT_ID":"45588","REF_FRAME":"TEME","OBJECT_NAME":"STARLINK-1360","APOAPSIS":"548.878","EPHEMERIS_TYPE":"0","CENTER_NAME":"EARTH","MEAN_ANOMALY":"281.0632","ELEMENT_SET_NO":"999","TIME_SYSTEM":"UTC","RCS_SIZE":"LARGE","PERIAPSIS":"545.572","TLE_LINE1":"1 45588U 20025BK  21281.86600485 -.00000750  00000-0 -31405-4 0  9991","SITE":"AFETR","TLE_LINE2":"2 45588  53.0540 116.8737 0002387  79.0626 281.0632 15.06396342 82418","MEAN_ELEMENT_THEORY":"SGP4","FILE":"3152020","SEMIMAJOR_AXIS":"6925.360","LAUNCH_DATE":"2020-04-22","MEAN_MOTION_DDOT":"0.0000000000000","REV_AT_EPOCH":"8241","EPOCH":"2021-10-08T20:47:02.819040","DECAY_DATE":null,"INCLINATION":"53.0540","GP_ID":"186593500","OBJECT_TYPE":"PAYLOAD","RA_OF_ASC_NODE":"116.8737","MEAN_MOTION":"15.06396342","COUNTRY_CODE":"US"},{"LAUNCH_DATE":"2020-04-22","MEAN_MOTION_DDOT":"0.0000000000000","REV_AT_EPOCH":"8241","EPOCH":"2021-10-08T20:41:43.771488","DECAY_DATE":null,"INCLINATION":"53.0536","GP_ID":"186594752","OBJECT_TYPE":"PAYLOAD","RA_OF_ASC_NODE":"116.8872","MEAN_MOTION":"15.06409811","COUNTRY_CODE":"US","PERIAPSIS":"546.064","RCS_SIZE":"LARGE","TLE_LINE1":"1 45589U 20025BL  21281.86231217  .00000409  00000-0  46344-4 0  9992","TLE_LINE2":"2 45589  53.0536 116.8872 0001616 101.7581 258.3589 15.06409811 82415","SITE":"AFETR","MEAN_ELEMENT_THEORY":"SGP4","FILE":"3152020","SEMIMAJOR_AXIS":"6925.318","EPHEMERIS_TYPE":"0","CENTER_NAME":"EARTH","MEAN_ANOMALY":"258.3589","ELEMENT_SET_NO":"999","TIME_SYSTEM":"UTC","OBJECT_ID":"2020-025BL","BSTAR":"0.00004634400000","ECCENTRICITY":"0.00016160","CLASSIFICATION_TYPE":"U","ARG_OF_PERICENTER":"101.7581","PERIOD":"95.592","MEAN_MOTION_DOT":"0.00000409","REF_FRAME":"TEME","NORAD_CAT_ID":"45589","OBJECT_NAME":"STARLINK-1364","APOAPSIS":"548.303"},{"GP_ID":"186594999","INCLINATION":"53.0539","DECAY_DATE":null,"EPOCH":"2021-10-08T21:04:16.771296","REV_AT_EPOCH":"8201","MEAN_MOTION_DDOT":"0.0000000000000","LAUNCH_DATE":"2020-04-22","COUNTRY_CODE":"US","RA_OF_ASC_NODE":"146.8171","MEAN_MOTION":"15.06403813","OBJECT_TYPE":"PAYLOAD","SITE":"AFETR","TLE_LINE2":"2 45590  53.0539 146.8171 0001736  80.2858 279.8327 15.06403813 82016","TLE_LINE1":"1 45590U 20025BM  21281.87797189 -.00000123  00000-0  10648-4 0  9992","PERIAPSIS":"546.000","RCS_SIZE":"LARGE","SEMIMAJOR_AXIS":"6925.337","MEAN_ELEMENT_THEORY":"SGP4","FILE":"3152020","CENTER_NAME":"EARTH","EPHEMERIS_TYPE":"0","TIME_SYSTEM":"UTC","ELEMENT_SET_NO":"999","MEAN_ANOMALY":"279.8327","CLASSIFICATION_TYPE":"U","ECCENTRICITY":"0.00017360","BSTAR":"0.00001064800000","OBJECT_ID":"2020-025BM","APOAPSIS":"548.404","OBJECT_NAME":"STARLINK-1365","NORAD_CAT_ID":"45590","REF_FRAME":"TEME","MEAN_MOTION_DOT":"-0.00000123","PERIOD":"95.592","ARG_OF_PERICENTER":"80.2858"},{"EPHEMERIS_TYPE":"0","CENTER_NAME":"EARTH","MEAN_ANOMALY":"277.3819","ELEMENT_SET_NO":"999","TIME_SYSTEM":"UTC","OBJECT_ID":"2020-035B","BSTAR":"-0.00002688400000","ECCENTRICITY":"0.00017810","CLASSIFICATION_TYPE":"U","PERIOD":"95.592","ARG_OF_PERICENTER":"82.7372","MEAN_MOTION_DOT":"-0.00000682","REF_FRAME":"TEME","NORAD_CAT_ID":"45658","OBJECT_NAME":"STARLINK-1441","APOAPSIS":"548.455","LAUNCH_DATE":"2020-06-04","MEAN_MOTION_DDOT":"0.0000000000000","REV_AT_EPOCH":"7563","EPOCH":"2021-10-08T18:51:35.683488","DECAY_DATE":null,"INCLINATION":"53.0535","GP_ID":"186593757","OBJECT_TYPE":"PAYLOAD","RA_OF_ASC_NODE":"107.2306","MEAN_MOTION":"15.06397246","COUNTRY_CODE":"US","PERIAPSIS":"545.989","RCS_SIZE":"LARGE","TLE_LINE1":"1 45658U 20035B   21281.78582967 -.00000682  00000-0 -26884-4 0  9994","TLE_LINE2":"2 45658  53.0535 107.2306 0001781  82.7372 277.3819 15.06397246 75637","SITE":"AFETR","MEAN_ELEMENT_THEORY":"SGP4","FILE":"3152020","SEMIMAJOR_AXIS":"6925.357"},{"MEAN_MOTION_DDOT":"0.0000000000000","REV_AT_EPOCH":"7564","LAUNCH_DATE":"2020-06-04","INCLINATION":"53.0545","GP_ID":"186594007","EPOCH":"2021-10-08T22:13:17.259744","DECAY_DATE":null,"OBJECT_TYPE":"PAYLOAD","COUNTRY_CODE":"US","RA_OF_ASC_NODE":"106.5980","MEAN_MOTION":"15.06409023","TLE_LINE2":"2 45659  53.0545 106.5980 0001589  91.6901 268.4270 15.06409023 75642","SITE":"AFETR","RCS_SIZE":"LARGE","PERIAPSIS":"546.085","TLE_LINE1":"1 45659U 20035C   21281.92589421  .00001658  00000-0  13013-3 0  9994","FILE":"3152020","MEAN_ELEMENT_THEORY":"SGP4","SEMIMAJOR_AXIS":"6925.321","EPHEMERIS_TYPE":"0","CENTER_NAME":"EARTH","MEAN_ANOMALY":"268.4270","ELEMENT_SET_NO":"999","TIME_SYSTEM":"UTC","BSTAR":"0.00013013000000","ECCENTRICITY":"0.00015890","OBJECT_ID":"2020-035C","CLASSIFICATION_TYPE":"U","MEAN_MOTION_DOT":"0.00001658","PERIOD":"95.592","ARG_OF_PERICENTER":"91.6901","OBJECT_NAME":"STARLINK-1442","APOAPSIS":"548.286","NORAD_CAT_ID":"45659","REF_FRAME":"TEME"},{"MEAN_ANOMALY":"266.7080","ELEMENT_SET_NO":"999","TIME_SYSTEM":"UTC","EPHEMERIS_TYPE":"0","CENTER_NAME":"EARTH","ARG_OF_PERICENTER":"93.4129","PERIOD":"95.593","MEAN_MOTION_DOT":"0.00000911","NORAD_CAT_ID":"45660","REF_FRAME":"TEME","OBJECT_NAME":"STARLINK-1443","APOAPSIS":"548.566","OBJECT_ID":"2020-035D","BSTAR":"0.00008010400000","ECCENTRICITY":"0.00019200","CLASSIFICATION_TYPE":"U","OBJECT_TYPE":"PAYLOAD","RA_OF_ASC_NODE":"107.1880","MEAN_MOTION":"15.06392448","COUNTRY_CODE":"US","LAUNCH_DATE":"2020-06-04","MEAN_MOTION_DDOT":"0.0000000000000","REV_AT_EPOCH":"7563","EPOCH":"2021-10-08T19:07:30.867456","DECAY_DATE":null,"INCLINATION":"53.0557","GP_ID":"186594258","MEAN_ELEMENT_THEORY":"SGP4","FILE":"3152020","SEMIMAJOR_AXIS":"6925.372","RCS_SIZE":"LARGE","PERIAPSIS":"545.907","TLE_LINE1":"1 45660U 20035D   21281.79688504  .00000911  00000-0  80104-4 0  9990","SITE":"AFETR","TLE_LINE2":"2 45660  53.0557 107.1880 0001920  93.4129 266.7080 15.06392448 75635"},{"MEAN_MOTION":"15.06395289","RA_OF_ASC_NODE":"106.5076","COUNTRY_CODE":"US","OBJECT_TYPE":"PAYLOAD","DECAY_DATE":null,"EPOCH":"2021-10-08T22:45:08.706816","GP_ID":"186594505","INCLINATION":"53.0548","LAUNCH_DATE":"2020-06-04","REV_AT_EPOCH":"7565","MEAN_MOTION_DDOT":"0.0000000000000","SEMIMAJOR_AXIS":"6925.363","MEAN_ELEMENT_THEORY":"SGP4","FILE":"3152020","TLE_LINE1":"1 45661U 20035E   21281.94801744  .00000989  00000-0  85315-4 0  9995","PERIAPSIS":"545.905","RCS_SIZE":"LARGE","TLE_LINE2":"2 45661  53.0548 106.5076 0001910  76.9962 283.1240 15.06395289 75655","SITE":"AFETR","TIME_SYSTEM":"UTC","ELEMENT_SET_NO":"999","MEAN_ANOMALY":"283.1240","CENTER_NAME":"EARTH","EPHEMERIS_TYPE":"0","REF_FRAME":"TEME","NORAD_CAT_ID":"45661","APOAPSIS":"548.551","OBJECT_NAME":"STARLINK-1444","ARG_OF_PERICENTER":"76.9962","PERIOD":"95.592","MEAN_MOTION_DOT":"0.00000989","CLASSIFICATION_TYPE":"U","OBJECT_ID":"2020-035E","ECCENTRICITY":"0.00019100","BSTAR":"0.00008531500000"},{"CLASSIFICATION_TYPE":"U","OBJECT_ID":"2020-035F","ECCENTRICITY":"0.00021150","BSTAR":"0.00010743000000","NORAD_CAT_ID":"45662","REF_FRAME":"TEME","APOAPSIS":"548.660","OBJECT_NAME":"STARLINK-1445","PERIOD":"95.592","ARG_OF_PERICENTER":"90.1913","MEAN_MOTION_DOT":"0.00001319","CENTER_NAME":"EARTH","EPHEMERIS_TYPE":"0","TIME_SYSTEM":"UTC","ELEMENT_SET_NO":"999","MEAN_ANOMALY":"269.9318","TLE_LINE1":"1 45662U 20035F   21281.83005772  .00001319  00000-0  10743-3 0  9991","RCS_SIZE":"LARGE","PERIAPSIS":"545.730","TLE_LINE2":"2 45662  53.0550 107.0362 0002115  90.1913 269.9318 15.06406015 75271","SITE":"AFETR","SEMIMAJOR_AXIS":"6925.330","FILE":"3151668","MEAN_ELEMENT_THEORY":"SGP4","DECAY_DATE":null,"EPOCH":"2021-10-08T19:55:16.987008","GP_ID":"186566438","INCLINATION":"53.0550","LAUNCH_DATE":"2020-06-04","REV_AT_EPOCH":"7527","MEAN_MOTION_DDOT":"0.0000000000000","RA_OF_ASC_NODE":"107.0362","MEAN_MOTION":"15.06406015","COUNTRY_CODE":"US","OBJECT_TYPE":"PAYLOAD"}];
